[{"OBJECT_NAME":"LEMUR-2-ANDIS","OBJECT_ID":"2017-042P","EPOCH":"2026-03-09T13:25:33.116448","MEAN_MOTION":15.30557934,"ECCENTRICITY":0.0009101,"INCLINATION":97.3659,"RA_OF_ASC_NODE":249.795,"ARG_OF_PERICENTER":4.3248,"MEAN_ANOMALY":355.807,"EPHEMERIS_TYPE":0,"CLASSIFICATION_TYPE":"U","NORAD_CAT_ID":42838,"ELEMENT_SET_NO":999,"REV_AT_EPOCH":47319,"BSTAR":0.00079875,"MEAN_MOTION_DOT":0.00023598,"MEAN_MOTION_DDOT":0},{"OBJECT_NAME":"STARLINK-30977","OBJECT_ID":"2023-183Y","EPOCH":"2026-03-09T22:00:01.999584","MEAN_MOTION":15.26728485,"ECCENTRICITY":0.00014102,"INCLINATION":43.0005,"RA_OF_ASC_NODE":40.5403,"ARG_OF_PERICENTER":261.7512,"MEAN_ANOMALY":202.8165,"EPHEMERIS_TYPE":0,"CLASSIFICATION_TYPE":"U","NORAD_CAT_ID":58459,"ELEMENT_SET_NO":999,"REV_AT_EPOCH":573,"BSTAR":0.0017851667,"MEAN_MOTION_DOT":0.0004792,"MEAN_MOTION_DDOT":0}]
